QIANFAN-41              
1 62242U 24232F   25261.95816602  .00000071  00000+0  90950-4 0  9996
2 62242  88.9974  49.7422 0015760  78.8600 281.4322 13.50970296 87806
QIANFAN-42              
1 62243U 24232G   25261.91216235  .00000305  00000+0  12573-3 0  9993
2 62243  88.9977  47.0338 0015063  10.6384 349.5124 14.24351165 89297
QIANFAN-43              
1 62244U 24232H   25261.88002212  .00000071  00000+0  91222-4 0  9997
2 62244  88.9981  49.8117 0017323  83.5503 276.7620 13.50967608 56403
QIANFAN-44              
1 62245U 24232J   25261.94172115  .00000060  00000+0  73546-4 0  9992
2 62245  88.9978  49.6175 0015519  80.9389 279.3517 13.50973018 87882
QIANFAN-45              
1 62246U 24232K   25261.98286873  .00000070  00000+0  90351-4 0  9998
2 62246  88.9983  49.7569 0016152  80.4308 279.8668 13.50969742 87811
QIANFAN-46              
1 62247U 24232L   25261.93347491  .00000070  00000+0  89560-4 0  9998
2 62247  88.9979  49.8344 0016276  85.4611 274.8399 13.50970399 87768
QIANFAN-47              
1 62248U 24232M   25261.93762407  .00000059  00000+0  73004-4 0  9990
2 62248  88.9973  49.7703 0016697  84.6374 275.6681 13.50963905 87796
QIANFAN-48              
1 62249U 24232N   25261.97465647  .00000080  00000+0  10482-3 0  9995
2 62249  88.9979  49.7651 0018962  86.7355 273.5965 13.50967615 87800
